LEGION 3                
1 60452U 24146A   25111.88958943  .00008951  00000+0  46997-3 0  9998
2 60452  45.0003 129.3724 0027529 322.4770  37.4187 15.15785717 38096
LEGION 4                
1 60453U 24146B   25111.76213547  .00010385  00000+0  54394-3 0  9994
2 60453  45.0373 221.0396 0006357 341.3120  18.7525 15.16015979 36922
SENTINEL-2C             
1 60989U 24157A   25111.63433707  .00000272  00000+0  12051-3 0  9996
2 60989  98.5637 187.5521 0001145  94.4638 265.6675 14.30814495 32704
