[
  {
    "OBJECT_NAME": "LEGION 3",
    "OBJECT_ID": "2024-146A",
    "EPOCH": "2025-04-21T21:21:00.526752",
    "MEAN_MOTION": 15.15785717,
    "ECCENTRICITY": 0.0027529,
    "INCLINATION": 45.0003,
    "RA_OF_ASC_NODE": 129.3724,
    "ARG_OF_PERICENTER": 322.477,
    "MEAN_ANOMALY": 37.4187,
    "EPHEMERIS_TYPE": 0,
    "CLASSIFICATION_TYPE": "U",
    "NORAD_CAT_ID": 60452,
    "ELEMENT_SET_NO": 999,
    "REV_AT_EPOCH": 3809,
    "BSTAR": 0.00046997,
    "MEAN_MOTION_DOT": 0.00008951,
    "MEAN_MOTION_DDOT": 0
  },
  {
    "OBJECT_NAME": "LEGION 4",
    "OBJECT_ID": "2024-146B",
    "EPOCH": "2025-04-21T18:17:28.504608",
    "MEAN_MOTION": 15.16015979,
    "ECCENTRICITY": 0.0006357,
    "INCLINATION": 45.0373,
    "RA_OF_ASC_NODE": 221.0396,
    "ARG_OF_PERICENTER": 341.312,
    "MEAN_ANOMALY": 18.7525,
    "EPHEMERIS_TYPE": 0,
    "CLASSIFICATION_TYPE": "U",
    "NORAD_CAT_ID": 60453,
    "ELEMENT_SET_NO": 999,
    "REV_AT_EPOCH": 3692,
    "BSTAR": 0.00054394,
    "MEAN_MOTION_DOT": 0.00010385,
    "MEAN_MOTION_DDOT": 0
  },
  {
    "OBJECT_NAME": "SENTINEL-2C",
    "OBJECT_ID": "2024-157A",
    "EPOCH": "2025-04-21T15:13:26.722848",
    "MEAN_MOTION": 14.30814495,
    "ECCENTRICITY": 0.0001145,
    "INCLINATION": 98.5637,
    "RA_OF_ASC_NODE": 187.5521,
    "ARG_OF_PERICENTER": 94.4638,
    "MEAN_ANOMALY": 265.6675,
    "EPHEMERIS_TYPE": 0,
    "CLASSIFICATION_TYPE": "U",
    "NORAD_CAT_ID": 60989,
    "ELEMENT_SET_NO": 999,
    "REV_AT_EPOCH": 3270,
    "BSTAR": 0.00012051,
    "MEAN_MOTION_DOT": 0.00000272,
    "MEAN_MOTION_DDOT": 0
  }
]